{
  "type": "FeatureCollection",
  "features": [
    {
      "type": "Feature",
      "properties": {
        "norad_id": 35915,
        "name": "IRIDIUM 33 DEB",
        "group": "iridium-33-debris",
        "lat": 54.591031791569264,
        "lon": -11.180998844569162,
        "alt_km": 627.4294879874606,
        "timestamp": "2025-12-11T05:00:26.693826+00:00",
        "meta_object_name": "IRIDIUM 33 DEB",
        "meta_object_id": "1997-051TY",
        "meta_epoch": "2025-12-07T18:02:16.498176",
        "meta_mean_motion": 14.80542095,
        "meta_eccentricity": 0.00101746,
        "meta_inclination": 86.3429,
        "meta_ra_of_asc_node": 345.2367,
        "meta_arg_of_pericenter": 205.9072,
        "meta_mean_anomaly": 154.1641,
        "meta_ephemeris_type": 0,
        "meta_classification_type": "U",
        "meta_norad_cat_id": 35915,
        "meta_element_set_no": 999,
        "meta_rev_at_epoch": 8012,
        "meta_bstar": 0.0030076362,
        "meta_mean_motion_dot": 0.00023136,
        "meta_mean_motion_ddot": 0,
        "tle_line1": "1 35915U 97051TY  25341.75157984  .00023136  00000+0  30076-2 0  9998",
        "tle_line2": "2 35915  86.3429 345.2367 0010174 205.9072 154.1641 14.80542095 80126"
      },
      "geometry": {
        "type": "Point",
        "coordinates": [
          -11.180998844569162,
          54.591031791569264
        ]
      }
    },
    {
      "type": "Feature",
      "properties": {
        "norad_id": 35918,
        "name": "IRIDIUM 33 DEB",
        "group": "iridium-33-debris",
        "lat": 11.462332101370425,
        "lon": 77.20403037479727,
        "alt_km": 741.6810749192973,
        "timestamp": "2025-12-11T05:00:26.693836+00:00",
        "meta_object_name": "IRIDIUM 33 DEB",
        "meta_object_id": "1997-051UB",
        "meta_epoch": "2025-12-09T13:18:26.589888",
        "meta_mean_motion": 14.51197516,
        "meta_eccentricity": 0.0027351,
        "meta_inclination": 86.4004,
        "meta_ra_of_asc_node": 77.1826,
        "meta_arg_of_pericenter": 180.0208,
        "meta_mean_anomaly": 195.2602,
        "meta_ephemeris_type": 0,
        "meta_classification_type": "U",
        "meta_norad_cat_id": 35918,
        "meta_element_set_no": 999,
        "meta_rev_at_epoch": 85161,
        "meta_bstar": 0.0018636,
        "meta_mean_motion_dot": 7.457e-05,
        "meta_mean_motion_ddot": 0,
        "tle_line1": "1 35918U 97051UB  25343.55447442  .00007457  00000+0  18636-2 0  9998",
        "tle_line2": "2 35918  86.4004  77.1826 0027351 180.0208 195.2602 14.51197516851614"
      },
      "geometry": {
        "type": "Point",
        "coordinates": [
          77.20403037479727,
          11.462332101370425
        ]
      }
    },
    {
      "type": "Feature",
      "properties": {
        "norad_id": 35929,
        "name": "IRIDIUM 33 DEB",
        "group": "iridium-33-debris",
        "lat": -21.58470914874553,
        "lon": 134.80992656779276,
        "alt_km": 577.5733129708278,
        "timestamp": "2025-12-11T05:00:26.693846+00:00",
        "meta_object_name": "IRIDIUM 33 DEB",
        "meta_object_id": "1997-051UN",
        "meta_epoch": "2025-12-10T04:07:57.675648",
        "meta_mean_motion": 15.02123789,
        "meta_eccentricity": 0.00184888,
        "meta_inclination": 86.3336,
        "meta_ra_of_asc_node": 313.8473,
        "meta_arg_of_pericenter": 44.9144,
        "meta_mean_anomaly": 315.3582,
        "meta_ephemeris_type": 0,
        "meta_classification_type": "U",
        "meta_norad_cat_id": 35929,
        "meta_element_set_no": 999,
        "meta_rev_at_epoch": 87741,
        "meta_bstar": 0.0038329706,
        "meta_mean_motion_dot": 0.00050875,
        "meta_mean_motion_ddot": 0,
        "tle_line1": "1 35929U 97051UN  25344.17219532  .00050875  00000+0  38330-2 0  9991",
        "tle_line2": "2 35929  86.3336 313.8473 0018488  44.9144 315.3582 15.02123789877415"
      },
      "geometry": {
        "type": "Point",
        "coordinates": [
          134.80992656779276,
          -21.58470914874553
        ]
      }
    },
    {
      "type": "Feature",
      "properties": {
        "norad_id": 36011,
        "name": "IRIDIUM 33 DEB",
        "group": "iridium-33-debris",
        "lat": 63.509797490322406,
        "lon": -151.29359606663766,
        "alt_km": 751.3075986287513,
        "timestamp": "2025-12-11T05:00:26.693856+00:00",
        "meta_object_name": "IRIDIUM 33 DEB",
        "meta_object_id": "1997-051US",
        "meta_epoch": "2025-12-10T10:24:05.252832",
        "meta_mean_motion": 14.41318738,
        "meta_eccentricity": 0.00174211,
        "meta_inclination": 86.3414,
        "meta_ra_of_asc_node": 36.4155,
        "meta_arg_of_pericenter": 224.1593,
        "meta_mean_anomaly": 192.2248,
        "meta_ephemeris_type": 0,
        "meta_classification_type": "U",
        "meta_norad_cat_id": 36011,
        "meta_element_set_no": 999,
        "meta_rev_at_epoch": 64507,
        "meta_bstar": 0.00072135893,
        "meta_mean_motion_dot": 2.356e-05,
        "meta_mean_motion_ddot": 0,
        "tle_line1": "1 36011U 97051US  25344.43339413  .00002356  00000+0  72136-3 0  9998",
        "tle_line2": "2 36011  86.3414  36.4155 0017421 224.1593 192.2248 14.41318738645074"
      },
      "geometry": {
        "type": "Point",
        "coordinates": [
          -151.29359606663766,
          63.509797490322406
        ]
      }
    },
    {
      "type": "Feature",
      "properties": {
        "norad_id": 36012,
        "name": "IRIDIUM 33 DEB",
        "group": "iridium-33-debris",
        "lat": 17.878180900773117,
        "lon": 127.00241476154454,
        "alt_km": 869.2423640795869,
        "timestamp": "2025-12-11T05:00:26.693866+00:00",
        "meta_object_name": "IRIDIUM 33 DEB",
        "meta_object_id": "1997-051UT",
        "meta_epoch": "2025-12-09T14:59:18.724128",
        "meta_mean_motion": 14.18848487,
        "meta_eccentricity": 0.0212452,
        "meta_inclination": 86.4428,
        "meta_ra_of_asc_node": 308.7902,
        "meta_arg_of_pericenter": 273.2722,
        "meta_mean_anomaly": 84.4182,
        "meta_ephemeris_type": 0,
        "meta_classification_type": "U",
        "meta_norad_cat_id": 36012,
        "meta_element_set_no": 999,
        "meta_rev_at_epoch": 65440,
        "meta_bstar": 0.0096093,
        "meta_mean_motion_dot": 0.00025103,
        "meta_mean_motion_ddot": 0,
        "tle_line1": "1 36012U 97051UT  25343.62452227  .00025103  00000+0  96093-2 0  9990",
        "tle_line2": "2 36012  86.4428 308.7902 0212452 273.2722  84.4182 14.18848487654405"
      },
      "geometry": {
        "type": "Point",
        "coordinates": [
          127.00241476154454,
          17.878180900773117
        ]
      }
    },
    {
      "type": "Feature",
      "properties": {
        "norad_id": 36028,
        "name": "IRIDIUM 33 DEB",
        "group": "iridium-33-debris",
        "lat": -7.330555077417263,
        "lon": 127.89241908707874,
        "alt_km": 595.6873280414338,
        "timestamp": "2025-12-11T05:00:26.693876+00:00",
        "meta_object_name": "IRIDIUM 33 DEB",
        "meta_object_id": "1997-051VK",
        "meta_epoch": "2025-12-10T04:04:48.277344",
        "meta_mean_motion": 14.95085193,
        "meta_eccentricity": 0.00219295,
        "meta_inclination": 86.3223,
        "meta_ra_of_asc_node": 307.9065,
        "meta_arg_of_pericenter": 61.0093,
        "meta_mean_anomaly": 299.3331,
        "meta_ephemeris_type": 0,
        "meta_classification_type": "U",
        "meta_norad_cat_id": 36028,
        "meta_element_set_no": 999,
        "meta_rev_at_epoch": 87086,
        "meta_bstar": 0.0033794203,
        "meta_mean_motion_dot": 0.00037369,
        "meta_mean_motion_ddot": 0,
        "tle_line1": "1 36028U 97051VK  25344.17000321  .00037369  00000+0  33794-2 0  9998",
        "tle_line2": "2 36028  86.3223 307.9065 0021929  61.0093 299.3331 14.95085193870861"
      },
      "geometry": {
        "type": "Point",
        "coordinates": [
          127.89241908707874,
          -7.330555077417263
        ]
      }
    },
    {
      "type": "Feature",
      "properties": {
        "norad_id": 36080,
        "name": "IRIDIUM 33 DEB",
        "group": "iridium-33-debris",
        "lat": -46.82780519458534,
        "lon": 4.720045142209623,
        "alt_km": 754.8637552031978,
        "timestamp": "2025-12-11T05:00:26.693886+00:00",
        "meta_object_name": "IRIDIUM 33 DEB",
        "meta_object_id": "1997-051VM",
        "meta_epoch": "2025-12-09T08:24:04.128192",
        "meta_mean_motion": 14.46584309,
        "meta_eccentricity": 0.0017863,
        "meta_inclination": 86.3197,
        "meta_ra_of_asc_node": 9.4635,
        "meta_arg_of_pericenter": 167.4902,
        "meta_mean_anomaly": 192.6748,
        "meta_ephemeris_type": 0,
        "meta_classification_type": "U",
        "meta_norad_cat_id": 36080,
        "meta_element_set_no": 999,
        "meta_rev_at_epoch": 47365,
        "meta_bstar": 0.0010095558,
        "meta_mean_motion_dot": 3.665e-05,
        "meta_mean_motion_ddot": 0,
        "tle_line1": "1 36080U 97051VM  25343.35004778  .00003665  00000+0  10096-2 0  9997",
        "tle_line2": "2 36080  86.3197   9.4635 0017863 167.4902 192.6748 14.46584309473650"
      },
      "geometry": {
        "type": "Point",
        "coordinates": [
          4.720045142209623,
          -46.82780519458534
        ]
      }
    }
  ]
}